*******************************************************************************
JPL/HORIZONS               3753 Cruithne (1986 TO)         2023-May-05 15:49:21
Rec #:    3753 (+COV) Soln.date: 2023-Mar-01_06:10:23   # obs: 1216 (1973-2022)
 
IAU76/J2000 helio. ecliptic osc. elements (au, days, deg., period=Julian yrs):
 
  EPOCH=  2456900.5 ! 2014-Aug-31.00 (TDB)         Residual RMS= .35645
   EC= .5148627256994029   QR= .4840184658385133   TP= 2457012.169995938
   OM= 126.2462939076055   W=  43.80978547847901   IN= 19.80747881540994
   A= .9976938311662474    MA= 249.5553600271496   ADIST= 1.511369196493981
   PER= .99656             N= .9890269900000001    ANGMOM= .014729875
   DAN= .53459             DDN= 1.16671            L= 168.3137556
   B= 13.566979            MOID= .0710535          TP= 2014-Dec-20.6699959380
 
Asteroid physical parameters (km, seconds, rotational period in hours):
   GM= n.a.                RAD= 1.0355             ROTPER= 27.3099
   H= 15.5                 G= .150                 B-V= n.a.
                           ALBEDO= .365            STYP= Q
 
ASTEROID comments: 
1: soln ref.= JPL#240, OCC=0
2: source=ORB
*******************************************************************************

  
  

*******************************************************************************
Ephemeris / WWW_USER Fri May  5 15:49:21 2023 Pasadena, USA      / Horizons
*******************************************************************************
Target body name: 3753 Cruithne (1986 TO)         {source: JPL#240}
Center body name: Earth (399)                     {source: DE441}
Center-site name: BODY CENTER
*******************************************************************************
Start time      : A.D. 2007-Sep-01 00:00:00.0000 TDB
Stop  time      : A.D. 2008-Aug-01 00:00:00.0000 TDB
Step-size       : 60 minutes
*******************************************************************************
Center geodetic : 0.0, 0.0, 0.0                   {E-lon(deg),Lat(deg),Alt(km)}
Center cylindric: 0.0, 0.0, 0.0                   {E-lon(deg),Dxy(km),Dz(km)}
Center radii    : 6378.137, 6378.137, 6356.752 km {Equator_a, b, pole_c}
Small perturbers: Yes                             {source: SB441-N16}
Output units    : KM-S
Calendar mode   : Mixed Julian/Gregorian
Output type     : GEOMETRIC cartesian states
Output format   : 1 (position only)
EOP file        : eop.230504.p230727
EOP coverage    : DATA-BASED 1962-JAN-20 TO 2023-MAY-04. PREDICTS-> 2023-JUL-26
Reference frame : Ecliptic of J2000.0
*******************************************************************************
Initial IAU76/J2000 heliocentric ecliptic osculating elements (au, days, deg.):
  EPOCH=  2456900.5 ! 2014-Aug-31.00 (TDB)         Residual RMS= .35645        
   EC= .5148627256994029   QR= .4840184658385133   TP= 2457012.169995938       
   OM= 126.2462939076055   W=  43.80978547847901   IN= 19.80747881540994       
  Equivalent ICRF heliocentric cartesian coordinates (au, au/d):
   X= 1.215347990905840E+00  Y= 5.153520927692684E-01  Z=-2.481738801145509E-01
  VX=-7.990656955364673E-03 VY= 8.039467650712289E-03 VZ= 3.939584837771865E-03
Asteroid physical parameters (km, seconds, rotational period in hours):        
   GM= n.a.                RAD= 1.0355             ROTPER= 27.3099             
   H= 15.5                 G= .150                 B-V= n.a.                   
                           ALBEDO= .365            STYP= Q                     
*******************************************************************************
            JDTDB,            Calendar Date (TDB),                      X,                      Y,                      Z,
**************************************************************************************************************************
$$SOE
2454459.083333333, A.D. 2007-Dec-24 14:00:00.0000, -5.755741442630454E+07, -1.109344510000624E+08,  1.070843576859038E+07,
2454459.125000000, A.D. 2007-Dec-24 15:00:00.0000, -5.751137968153942E+07, -1.110979644527787E+08,  1.076252864215220E+07,
2454459.166666667, A.D. 2007-Dec-24 16:00:00.0000, -5.746507529819843E+07, -1.112615534262583E+08,  1.081657521318350E+07,
2454459.208333333, A.D. 2007-Dec-24 17:00:00.0000, -5.741850083786339E+07, -1.114252173230950E+08,  1.087057521154178E+07,
2454459.250000000, A.D. 2007-Dec-24 18:00:00.0000, -5.737165586436389E+07, -1.115889555431978E+08,  1.092452836716396E+07,
2454459.291666667, A.D. 2007-Dec-24 19:00:00.0000, -5.732453994379297E+07, -1.117527674837948E+08,  1.097843441007130E+07,
2454459.333333333, A.D. 2007-Dec-24 20:00:00.0000, -5.727715264452276E+07, -1.119166525394371E+08,  1.103229307037437E+07,
2454459.375000000, A.D. 2007-Dec-24 21:00:00.0000, -5.722949353722610E+07, -1.120806101020186E+08,  1.108610407828325E+07,
2454459.416666667, A.D. 2007-Dec-24 22:00:00.0000, -5.718156219489205E+07, -1.122446395607802E+08,  1.113986716411250E+07,
2454459.458333333, A.D. 2007-Dec-24 23:00:00.0000, -5.713335819284139E+07, -1.124087403023142E+08,  1.119358205828623E+07,
2454459.500000000, A.D. 2007-Dec-25 00:00:00.0000, -5.708488110874797E+07, -1.125729117105848E+08,  1.124724849134823E+07,
2454459.541666667, A.D. 2007-Dec-25 01:00:00.0000, -5.703613052265407E+07, -1.127371531669328E+08,  1.130086619396709E+07,
2454459.583333333, A.D. 2007-Dec-25 02:00:00.0000, -5.698710601698574E+07, -1.129014640500797E+08,  1.135443489694128E+07,
2454459.625000000, A.D. 2007-Dec-25 03:00:00.0000, -5.693780717657384E+07, -1.130658437361499E+08,  1.140795433120938E+07,
2454459.666666667, A.D. 2007-Dec-25 04:00:00.0000, -5.688823358866931E+07, -1.132302915986744E+08,  1.146142422785514E+07,
2454459.708333333, A.D. 2007-Dec-25 05:00:00.0000, -5.683838484295820E+07, -1.133948070085968E+08,  1.151484431811267E+07,
2454459.750000000, A.D. 2007-Dec-25 06:00:00.0000, -5.678826053158264E+07, -1.135593893342947E+08,  1.156821433337661E+07,
2454459.791666667, A.D. 2007-Dec-25 07:00:00.0000, -5.673786024915565E+07, -1.137240379415848E+08,  1.162153400520743E+07,
2454459.833333333, A.D. 2007-Dec-25 08:00:00.0000, -5.668718359277622E+07, -1.138887521937287E+08,  1.167480306533635E+07,
2454459.875000000, A.D. 2007-Dec-25 09:00:00.0000, -5.663623016204979E+07, -1.140535314514550E+08,  1.172802124567602E+07,
2454459.916666667, A.D. 2007-Dec-25 10:00:00.0000, -5.658499955910308E+07, -1.142183750729650E+08,  1.178118827832529E+07,
2454459.958333333, A.D. 2007-Dec-25 11:00:00.0000, -5.653349138859872E+07, -1.143832824139385E+08,  1.183430389557461E+07,
2454460.000000000, A.D. 2007-Dec-25 12:00:00.0000, -5.648170525775564E+07, -1.145482528275567E+08,  1.188736782991638E+07,
2454460.041666667, A.D. 2007-Dec-25 13:00:00.0000, -5.642964077636353E+07, -1.147132856645083E+08,  1.194037981405018E+07,
2454460.083333333, A.D. 2007-Dec-25 14:00:00.0000, -5.637729755679736E+07, -1.148783802729956E+08,  1.199333958088778E+07,
2454460.125000000, A.D. 2007-Dec-25 15:00:00.0000, -5.632467521403734E+07, -1.150435359987579E+08,  1.204624686356378E+07,
2454460.166666667, A.D. 2007-Dec-25 16:00:00.0000, -5.627177336568332E+07, -1.152087521850778E+08,  1.209910139544069E+07,
2454460.208333333, A.D. 2007-Dec-25 17:00:00.0000, -5.621859163196887E+07, -1.153740281727882E+08,  1.215190291011421E+07,
2454460.250000000, A.D. 2007-Dec-25 18:00:00.0000, -5.616512963578117E+07, -1.155393633002958E+08,  1.220465114142361E+07,
2454460.291666667, A.D. 2007-Dec-25 19:00:00.0000, -5.611138700267488E+07, -1.157047569035879E+08,  1.225734582345708E+07,
2454460.333333333, A.D. 2007-Dec-25 20:00:00.0000, -5.605736336088622E+07, -1.158702083162398E+08,  1.230998669055680E+07,
2454460.375000000, A.D. 2007-Dec-25 21:00:00.0000, -5.600305834135238E+07, -1.160357168694385E+08,  1.236257347732960E+07,
2454460.416666667, A.D. 2007-Dec-25 22:00:00.0000, -5.594847157772522E+07, -1.162012818919905E+08,  1.241510591865202E+07,
2454460.458333333, A.D. 2007-Dec-25 23:00:00.0000, -5.589360270638508E+07, -1.163669027103287E+08,  1.246758374967571E+07,
2454460.500000000, A.D. 2007-Dec-26 00:00:00.0000, -5.583845136645978E+07, -1.165325786485377E+08,  1.252000670583787E+07,
2454460.541666667, A.D. 2007-Dec-26 01:00:00.0000, -5.578301719983811E+07, -1.166983090283610E+08,  1.257237452286651E+07,
2454460.583333333, A.D. 2007-Dec-26 02:00:00.0000, -5.572729985118341E+07, -1.168640931692087E+08,  1.262468693678575E+07,
2454460.625000000, A.D. 2007-Dec-26 03:00:00.0000, -5.567129896795213E+07, -1.170299303881830E+08,  1.267694368392619E+07,
2454460.666666667, A.D. 2007-Dec-26 04:00:00.0000, -5.561501420040713E+07, -1.171958200000861E+08,  1.272914450093040E+07,
2454460.708333333, A.D. 2007-Dec-26 05:00:00.0000, -5.555844520163092E+07, -1.173617613174284E+08,  1.278128912475807E+07,
2454460.750000000, A.D. 2007-Dec-26 06:00:00.0000, -5.550159162754388E+07, -1.175277536504539E+08,  1.283337729269648E+07,
2454460.791666667, A.D. 2007-Dec-26 07:00:00.0000, -5.544445313691729E+07, -1.176937963071486E+08,  1.288540874236590E+07,
2454460.833333333, A.D. 2007-Dec-26 08:00:00.0000, -5.538702939138623E+07, -1.178598885932494E+08,  1.293738321172480E+07,
2454460.875000000, A.D. 2007-Dec-26 09:00:00.0000, -5.532932005546750E+07, -1.180260298122697E+08,  1.298930043908036E+07,
2454460.916666667, A.D. 2007-Dec-26 10:00:00.0000, -5.527132479657228E+07, -1.181922192655084E+08,  1.304116016309376E+07,
2454460.958333333, A.D. 2007-Dec-26 11:00:00.0000, -5.521304328501882E+07, -1.183584562520586E+08,  1.309296212278550E+07,
2454461.000000000, A.D. 2007-Dec-26 12:00:00.0000, -5.515447519404987E+07, -1.185247400688342E+08,  1.314470605754594E+07,
2454461.041666667, A.D. 2007-Dec-26 13:00:00.0000, -5.509562019984511E+07, -1.186910700105790E+08,  1.319639170714043E+07,
2454461.083333333, A.D. 2007-Dec-26 14:00:00.0000, -5.503647798153353E+07, -1.188574453698757E+08,  1.324801881171480E+07,
2454461.125000000, A.D. 2007-Dec-26 15:00:00.0000, -5.497704822121042E+07, -1.190238654371731E+08,  1.329958711180569E+07,
